XRISM                   
1 57800U 23137A   24097.46194510  .00004203  00000+0  32173-3 0  9995
2 57800  31.0027 108.8485 0010296 218.0270 141.9639 15.00184359 31820
